{"type": "FeatureCollection", "features": [{"type": "Feature", "properties": {"id": "312231671", "name": null, "heightM": 6.2, "heightSource": "default"}, "geometry": {"type": "Polygon", "coordinates": [[[37.0173847, -1.0974591], [37.0175194, -1.097558], [37.0175073, -1.0975744], [37.0175416, -1.0975996], [37.0176655, -1.0974308], [37.0174786, -1.0972936], [37.0173972, -1.0974044], [37.0174152, -1.0974176], [37.0173847, -1.0974591]]]}}, {"type": "Feature", "properties": {"id": "330895543", "name": "Hall 6 mess", "heightM": 3.0, "heightSource": "osm_levels"}, "geometry": {"type": "Polygon", "coordinates": [[[37.0174304, -1.0946251], [37.0177252, -1.0946357], [37.0177311, -1.0944721], [37.0177619, -1.0944659], [37.0177696, -1.094251], [37.0177063, -1.0942488], [37.017704, -1.0943131], [37.0175642, -1.0943081], [37.0175671, -1.0942284], [37.0174134, -1.0942229], [37.0174074, -1.0943917], [37.0174387, -1.0943929], [37.0174304, -1.0946251]]]}}, {"type": "Feature", "properties": {"id": "330896074", "name": "Technology House(hall_7)", "heightM": 12.0, "heightSource": "osm_levels"}, "geometry": {"type": "Polygon", "coordinates": [[[37.01657, -1.0945023], [37.0169234, -1.0945098], [37.016922, -1.0945634], [37.0169509, -1.0945641], [37.01727, -1.0945721], [37.0172728, -1.0944585], [37.0172494, -1.0944579], [37.0172522, -1.0943419], [37.0172819, -1.0943426], [37.0172839, -1.0942563], [37.0171946, -1.0942542], [37.016915, -1.0942539], [37.0169145, -1.0941747], [37.0166745, -1.0941763], [37.0166745, -1.0941894], [37.0166506, -1.0941895], [37.0165724, -1.0941882], [37.016571, -1.0942718], [37.0165923, -1.0942722], [37.01659, -1.0944024], [37.0165718, -1.094402], [37.01657, -1.0945023]]]}}, {"type": "Feature", "properties": {"id": "330896075", "name": "studeez", "heightM": 6.2, "heightSource": "default"}, "geometry": {"type": "Polygon", "coordinates": [[[37.0162526, -1.0942538], [37.0164995, -1.0942341], [37.0165073, -1.0943323], [37.0164541, -1.0943365], [37.0162604, -1.0943519], [37.0162526, -1.0942538]]]}}, {"type": "Feature", "properties": {"id": "330896699", "name": "S.C.C", "heightM": 6.0, "heightSource": "osm_levels"}, "geometry": {"type": "Polygon", "coordinates": [[[37.014388, -1.0946852], [37.0146197, -1.0946837], [37.0146185, -1.0945057], [37.0145453, -1.0945062], [37.0145452, -1.0944859], [37.0143867, -1.0944869], [37.014388, -1.0946852]]]}}, {"type": "Feature", "properties": {"id": "330897410", "name": "Computer Building Faculty of Agriculture", "heightM": 6.0, "heightSource": "osm_levels"}, "geometry": {"type": "Polygon", "coordinates": [[[37.0135375, -1.0943155], [37.0139547, -1.0943192], [37.0139532, -1.0944869], [37.013536, -1.0944833], [37.0135375, -1.0943155]]]}}, {"type": "Feature", "properties": {"id": "330897786", "name": "Food Science Building", "heightM": 6.2, "heightSource": "default"}, "geometry": {"type": "Polygon", "coordinates": [[[37.013068, -1.094839], [37.0135157, -1.0948323], [37.013513, -1.0946513], [37.0130653, -1.094658], [37.013068, -1.094839]]]}}, {"type": "Feature", "properties": {"id": "330898203", "name": "Food Science Building", "heightM": 6.0, "heightSource": "osm_levels"}, "geometry": {"type": "Polygon", "coordinates": [[[37.0135681, -1.0947939], [37.0139295, -1.0947886], [37.0139299, -1.0948128], [37.014215, -1.0948087], [37.014213, -1.0946742], [37.0139463, -1.0946781], [37.0139458, -1.0946421], [37.0135659, -1.0946476], [37.0135681, -1.0947939]]]}}, {"type": "Feature", "properties": {"id": "330898779", "name": "Common Lecture building (C.L.B)", "heightM": 6.0, "heightSource": "osm_levels"}, "geometry": {"type": "Polygon", "coordinates": [[[37.0139735, -1.0952458], [37.0142951, -1.0952461], [37.0142953, -1.095128], [37.0145461, -1.0951283], [37.0145451, -1.0951093], [37.0145426, -1.0950021], [37.0139738, -1.0950013], [37.0139735, -1.0952458]]]}}, {"type": "Feature", "properties": {"id": "330898780", "name": "S.H.R.D building(school of human resource Department)", "heightM": 3.0, "heightSource": "osm_levels"}, "geometry": {"type": "Polygon", "coordinates": [[[37.0145406, -1.0949237], [37.0149232, -1.094915], [37.0149252, -1.0950045], [37.0146936, -1.0950097], [37.0146958, -1.0951059], [37.0145451, -1.0951093], [37.0145426, -1.0950021], [37.0145406, -1.0949237]]]}}, {"type": "Feature", "properties": {"id": "330898781", "name": "JKUAT Administration Block A", "heightM": 6.0, "heightSource": "osm_levels"}, "geometry": {"type": "Polygon", "coordinates": [[[37.0144117, -1.0955799], [37.0146825, -1.0955804], [37.0146823, -1.0956748], [37.0146245, -1.0956747], [37.0146244, -1.0957195], [37.0143575, -1.0957189], [37.0143576, -1.0956828], [37.0144115, -1.0956829], [37.0144117, -1.0955799]]]}}, {"type": "Feature", "properties": {"id": "330899949", "name": "JKUAT assembly hall", "heightM": 6.2, "heightSource": "default"}, "geometry": {"type": "Polygon", "coordinates": [[[37.0149476, -1.0953526], [37.015261, -1.0953555], [37.0152621, -1.0952306], [37.0152888, -1.0952308], [37.0152899, -1.0951167], [37.0149501, -1.0951252], [37.0149476, -1.0953526]]]}}, {"type": "Feature", "properties": {"id": "330899951", "name": "JKUAT Admin Block 2", "heightM": 6.0, "heightSource": "osm_levels"}, "geometry": {"type": "Polygon", "coordinates": [[[37.0142779, -1.0965285], [37.014502, -1.0965276], [37.0145011, -1.096291], [37.0142756, -1.0962933], [37.014274, -1.0964021], [37.0142779, -1.0965285]]]}}, {"type": "Feature", "properties": {"id": "330901646", "name": "Administration Building", "heightM": 18.0, "heightSource": "osm_levels"}, "geometry": {"type": "Polygon", "coordinates": [[[37.0138648, -1.0970254], [37.0138838, -1.0970098], [37.0139024, -1.0969977], [37.0139279, -1.0969946], [37.0139519, -1.0969895], [37.0139759, -1.0969924], [37.0140021, -1.0969951], [37.0140304, -1.0970098], [37.014054, -1.0970153], [37.0140817, -1.0969746], [37.0140802, -1.0969464], [37.0140976, -1.0969307], [37.0141138, -1.0969177], [37.0141342, -1.0969126], [37.0141499, -1.0969189], [37.0141665, -1.0969298], [37.0141767, -1.0969463], [37.0141758, -1.0969784], [37.0142144, -1.0970055], [37.0142438, -1.0969828], [37.0143426, -1.0971048], [37.0142313, -1.0972286], [37.0141909, -1.0971997], [37.0141021, -1.0972782], [37.014044, -1.097218], [37.0139933, -1.0972316], [37.0139582, -1.0972507], [37.0139266, -1.0972452], [37.0138965, -1.0972372], [37.0138691, -1.0972139], [37.0138405, -1.097187], [37.0138306, -1.0971543], [37.013833, -1.0971291], [37.013826, -1.0970948], [37.0138415, -1.0970738], [37.0138527, -1.0970498], [37.0138648, -1.0970254]]]}}, {"type": "Feature", "properties": {"id": "330901652", "name": "E.M.B(Engineering Main Building)", "heightM": 6.0, "heightSource": "osm_levels"}, "geometry": {"type": "Polygon", "coordinates": [[[37.0135405, -1.0956338], [37.0138725, -1.0956272], [37.0138716, -1.0955833], [37.0143145, -1.0955744], [37.0143114, -1.0954195], [37.013862, -1.0954285], [37.0138632, -1.0954849], [37.013738, -1.0954874], [37.0135376, -1.0954914], [37.0135405, -1.0956338]]]}}, {"type": "Feature", "properties": {"id": "330901656", "name": "Soil Lab (Civil Engineering Block)", "heightM": 6.2, "heightSource": "default"}, "geometry": {"type": "Polygon", "coordinates": [[[37.0130015, -1.0956465], [37.0131581, -1.0956422], [37.0131569, -1.095599], [37.0133595, -1.0955935], [37.0133575, -1.0955179], [37.0129983, -1.0955277], [37.0130015, -1.0956465]]]}}, {"type": "Feature", "properties": {"id": "330903779", "name": null, "heightM": 6.2, "heightSource": "default"}, "geometry": {"type": "Polygon", "coordinates": [[[37.015055, -1.0967675], [37.0150539, -1.0970012], [37.015259, -1.0970021], [37.0152601, -1.0967685], [37.015055, -1.0967675]]]}}, {"type": "Feature", "properties": {"id": "330903781", "name": "AICAD gym", "heightM": 6.2, "heightSource": "default"}, "geometry": {"type": "Polygon", "coordinates": [[[37.0156252, -1.0968058], [37.0157715, -1.0968078], [37.0157715, -1.0969318], [37.0156252, -1.0969297], [37.0156252, -1.0968058]]]}}, {"type": "Feature", "properties": {"id": "330903783", "name": "SUM", "heightM": 6.2, "heightSource": "default"}, "geometry": {"type": "Polygon", "coordinates": [[[37.0165072, -1.0961831], [37.0168278, -1.0961855], [37.0168286, -1.0960942], [37.0165079, -1.0960919], [37.0165072, -1.0961831]]]}}, {"type": "Feature", "properties": {"id": "330903786", "name": "SUM", "heightM": 6.2, "heightSource": "default"}, "geometry": {"type": "Polygon", "coordinates": [[[37.016861, -1.0962519], [37.0171661, -1.0962528], [37.0171664, -1.0961673], [37.0168612, -1.0961666], [37.016861, -1.0962519]]]}}, {"type": "Feature", "properties": {"id": "330906112", "name": null, "heightM": 3.0, "heightSource": "osm_levels"}, "geometry": {"type": "Polygon", "coordinates": [[[37.0154486, -1.0957876], [37.0157312, -1.0957937], [37.0157312, -1.0956941], [37.0154506, -1.0956881], [37.0154486, -1.0957876]]]}}, {"type": "Feature", "properties": {"id": "330906113", "name": "Serena Cafeteria", "heightM": 6.2, "heightSource": "default"}, "geometry": {"type": "Polygon", "coordinates": [[[37.0153206, -1.0954177], [37.0153226, -1.0955803], [37.0153693, -1.0955783], [37.0153754, -1.095621], [37.0154466, -1.095619], [37.0154445, -1.0956657], [37.0157678, -1.0956698], [37.0157624, -1.0955207], [37.0157617, -1.0954279], [37.0156472, -1.0954253], [37.0153206, -1.0954177]]]}}, {"type": "Feature", "properties": {"id": "330906114", "name": "Candle Cafeteria", "heightM": 6.2, "heightSource": "default"}, "geometry": {"type": "Polygon", "coordinates": [[[37.0153447, -1.0952042], [37.0153796, -1.0951935], [37.0154285, -1.0951949], [37.0154224, -1.0954075], [37.0153389, -1.0954051], [37.0153447, -1.0952042]]]}}, {"type": "Feature", "properties": {"id": "330906115", "name": "Main Mess", "heightM": 6.2, "heightSource": "default"}, "geometry": {"type": "Polygon", "coordinates": [[[37.0154285, -1.0951949], [37.0156458, -1.0951901], [37.0156506, -1.0953649], [37.0156519, -1.0954116], [37.0154224, -1.0954075], [37.0154285, -1.0951949]]]}}, {"type": "Feature", "properties": {"id": "330906116", "name": "Students Finance", "heightM": 6.2, "heightSource": "default"}, "geometry": {"type": "Polygon", "coordinates": [[[37.015979, -1.0953692], [37.0159774, -1.0955203], [37.015902, -1.0955195], [37.0157669, -1.0955194], [37.0157662, -1.0954266], [37.0156517, -1.095424], [37.0156551, -1.0953636], [37.015979, -1.0953692]]]}}, {"type": "Feature", "properties": {"id": "330906118", "name": "Hall 3", "heightM": 6.2, "heightSource": "default"}, "geometry": {"type": "Polygon", "coordinates": [[[37.0162821, -1.0954545], [37.0165368, -1.095453], [37.0165366, -1.0954192], [37.01671, -1.0954182], [37.0167093, -1.0953035], [37.0165478, -1.0953044], [37.0165481, -1.0953571], [37.0165145, -1.0953573], [37.016501, -1.0953574], [37.0162815, -1.0953586], [37.0162821, -1.0954545]]]}}, {"type": "Feature", "properties": {"id": "330906119", "name": "Hall 1", "heightM": 6.2, "heightSource": "default"}, "geometry": {"type": "Polygon", "coordinates": [[[37.0166355, -1.0950505], [37.016816, -1.0950517], [37.0168163, -1.0950111], [37.0170455, -1.0950126], [37.0170465, -1.0948924], [37.0167973, -1.0948908], [37.0167971, -1.0949217], [37.0166364, -1.0949206], [37.0166355, -1.0950505]]]}}, {"type": "Feature", "properties": {"id": "330906120", "name": "Hall 2", "heightM": 6.2, "heightSource": "default"}, "geometry": {"type": "Polygon", "coordinates": [[[37.017235, -1.0951552], [37.0173974, -1.0951478], [37.0173961, -1.095116], [37.0176696, -1.0951044], [37.0176646, -1.0949866], [37.0173927, -1.0949982], [37.0173944, -1.0950371], [37.01723, -1.0950442], [37.017235, -1.0951552]]]}}, {"type": "Feature", "properties": {"id": "330906121", "name": "Hall 4", "heightM": 6.2, "heightSource": "default"}, "geometry": {"type": "Polygon", "coordinates": [[[37.0169626, -1.0955898], [37.0172278, -1.0955896], [37.0172278, -1.0955498], [37.0174201, -1.0955497], [37.01742, -1.0954336], [37.0172413, -1.0954338], [37.0172308, -1.0954688], [37.0169625, -1.095469], [37.0169626, -1.0955898]]]}}, {"type": "Feature", "properties": {"id": "330906122", "name": "Hall 5", "heightM": 6.2, "heightSource": "default"}, "geometry": {"type": "Polygon", "coordinates": [[[37.0175238, -1.0954429], [37.0177936, -1.0954442], [37.0177938, -1.0954002], [37.0179638, -1.0954011], [37.0179644, -1.0952908], [37.0177944, -1.09529], [37.0177943, -1.0953225], [37.0175244, -1.0953211], [37.0175238, -1.0954429]]]}}, {"type": "Feature", "properties": {"id": "330910780", "name": "Dean of Students", "heightM": 3.0, "heightSource": "osm_levels"}, "geometry": {"type": "Polygon", "coordinates": [[[37.0157866, -1.0951528], [37.0161754, -1.0951478], [37.0161746, -1.0950846], [37.0157858, -1.0950896], [37.0157866, -1.0951528]]]}}, {"type": "Feature", "properties": {"id": "330937075", "name": "Transportation building", "heightM": 6.2, "heightSource": "default"}, "geometry": {"type": "Polygon", "coordinates": [[[37.0127484, -1.0947154], [37.0127514, -1.0945707], [37.0123657, -1.0945627], [37.0123627, -1.0947074], [37.0127484, -1.0947154]]]}}, {"type": "Feature", "properties": {"id": "330937077", "name": "Engineering Workshop", "heightM": 6.2, "heightSource": "default"}, "geometry": {"type": "Polygon", "coordinates": [[[37.012794, -1.095001], [37.012797, -1.0947951], [37.011903, -1.094782], [37.0118902, -1.0956563], [37.012757, -1.095669], [37.0127593, -1.095512], [37.0120872, -1.0955022], [37.0120947, -1.0949908], [37.012794, -1.095001]]]}}, {"type": "Feature", "properties": {"id": "330937079", "name": "Directorate of Performance Contracting and Appraisal Bldg", "heightM": 3.0, "heightSource": "osm_levels"}, "geometry": {"type": "Polygon", "coordinates": [[[37.0114768, -1.0956449], [37.0114796, -1.0957564], [37.0115569, -1.0957545], [37.0115542, -1.095643], [37.0114768, -1.0956449]]]}}, {"type": "Feature", "properties": {"id": "330938676", "name": "IEET", "heightM": 6.2, "heightSource": "default"}, "geometry": {"type": "Polygon", "coordinates": [[[37.0117479, -1.0937224], [37.0118592, -1.0937247], [37.0118586, -1.0937511], [37.0119517, -1.093753], [37.0119521, -1.0937345], [37.0120655, -1.0937368], [37.0120671, -1.0936584], [37.0117494, -1.0936518], [37.0117479, -1.0937224]]]}}, {"type": "Feature", "properties": {"id": "330938677", "name": "JKAC", "heightM": 6.2, "heightSource": "default"}, "geometry": {"type": "Polygon", "coordinates": [[[37.0125553, -1.0936188], [37.0125563, -1.0937017], [37.0121333, -1.0937069], [37.0121323, -1.0936241], [37.0125553, -1.0936188]]]}}, {"type": "Feature", "properties": {"id": "330938678", "name": null, "heightM": 6.2, "heightSource": "default"}, "geometry": {"type": "Polygon", "coordinates": [[[37.0122525, -1.093243], [37.0123212, -1.0932436], [37.0123187, -1.0935156], [37.01225, -1.093515], [37.0122525, -1.093243]]]}}, {"type": "Feature", "properties": {"id": "330943070", "name": "BEED", "heightM": 6.2, "heightSource": "default"}, "geometry": {"type": "Polygon", "coordinates": [[[37.0140434, -1.0937096], [37.0142812, -1.0937052], [37.0142802, -1.0936533], [37.0146507, -1.0936464], [37.014649, -1.0935497], [37.0143257, -1.0935558], [37.014324, -1.0934659], [37.014039, -1.0934712], [37.0140434, -1.0937096]]]}}, {"type": "Feature", "properties": {"id": "330943072", "name": "Farm Machinery Store", "heightM": 6.2, "heightSource": "default"}, "geometry": {"type": "Polygon", "coordinates": [[[37.0133734, -1.0936851], [37.0135728, -1.0936736], [37.0135642, -1.0935259], [37.0133649, -1.0935374], [37.0133734, -1.0936851]]]}}, {"type": "Feature", "properties": {"id": "330997841", "name": "Green Houses", "heightM": 6.2, "heightSource": "default"}, "geometry": {"type": "Polygon", "coordinates": [[[37.0129043, -1.0934888], [37.0129646, -1.0934874], [37.0129715, -1.0937902], [37.0129113, -1.0937916], [37.0129043, -1.0934888]]]}}, {"type": "Feature", "properties": {"id": "330997842", "name": "Red Hats", "heightM": 6.2, "heightSource": "default"}, "geometry": {"type": "Polygon", "coordinates": [[[37.0130233, -1.0926867], [37.0131331, -1.0926852], [37.0131385, -1.0930738], [37.0130287, -1.0930754], [37.0130233, -1.0926867]]]}}, {"type": "Feature", "properties": {"id": "330997843", "name": "JKUAT stores", "heightM": 3.0, "heightSource": "osm_levels"}, "geometry": {"type": "Polygon", "coordinates": [[[37.0131765, -1.0928368], [37.0132778, -1.0928365], [37.0132786, -1.093166], [37.0131772, -1.0931662], [37.0131765, -1.0928368]]]}}, {"type": "Feature", "properties": {"id": "330997845", "name": "Farm Annex Building", "heightM": 6.2, "heightSource": "default"}, "geometry": {"type": "Polygon", "coordinates": [[[37.012882, -1.0930385], [37.01297, -1.0930383], [37.012969, -1.0926444], [37.0131216, -1.0926449], [37.0131198, -1.0925447], [37.0128808, -1.0925457], [37.012882, -1.0930385]]]}}, {"type": "Feature", "properties": {"id": "330999259", "name": null, "heightM": 6.2, "heightSource": "default"}, "geometry": {"type": "Polygon", "coordinates": [[[37.0129621, -1.093457], [37.0129598, -1.09308], [37.0129142, -1.0930803], [37.0129166, -1.0934573], [37.0129621, -1.093457]]]}}, {"type": "Feature", "properties": {"id": "330999260", "name": "S.H.R.D", "heightM": 6.2, "heightSource": "default"}, "geometry": {"type": "Polygon", "coordinates": [[[37.0130761, -1.0933166], [37.0131686, -1.0933185], [37.0131617, -1.0936429], [37.0130692, -1.093641], [37.0130761, -1.0933166]]]}}, {"type": "Feature", "properties": {"id": "330999263", "name": "E.L.B Engineering Lecture Building)", "heightM": 9.0, "heightSource": "osm_levels"}, "geometry": {"type": "Polygon", "coordinates": [[[37.0134637, -1.0964527], [37.0137496, -1.0964512], [37.0137498, -1.0964875], [37.0139785, -1.0964863], [37.0139775, -1.0962827], [37.0134628, -1.0962854], [37.0134637, -1.0964527]]]}}, {"type": "Feature", "properties": {"id": "330999266", "name": "ITROMID Lecture Hall", "heightM": 6.2, "heightSource": "default"}, "geometry": {"type": "Polygon", "coordinates": [[[37.0123254, -1.097265], [37.0124313, -1.0972649], [37.0124312, -1.0971164], [37.0122736, -1.0971162], [37.0121187, -1.0971161], [37.0121188, -1.0972056], [37.0122057, -1.0972056], [37.0122057, -1.0972401], [37.0122849, -1.0972401], [37.0122849, -1.0971897], [37.0123254, -1.0971897], [37.0123254, -1.097265]]]}}, {"type": "Feature", "properties": {"id": "331285591", "name": null, "heightM": 6.2, "heightSource": "default"}, "geometry": {"type": "Polygon", "coordinates": [[[37.0109116, -1.0948034], [37.0110244, -1.0948025], [37.0110242, -1.094782], [37.0111184, -1.0947812], [37.0111189, -1.0948444], [37.0110667, -1.0948449], [37.0110669, -1.0948742], [37.0109122, -1.0948755], [37.0109116, -1.0948034]]]}}, {"type": "Feature", "properties": {"id": "331285592", "name": null, "heightM": 6.2, "heightSource": "default"}, "geometry": {"type": "Polygon", "coordinates": [[[37.0109706, -1.0950381], [37.0109706, -1.0949684], [37.0111055, -1.0949684], [37.0111055, -1.0950381], [37.0109706, -1.0950381]]]}}, {"type": "Feature", "properties": {"id": "331285593", "name": "Lecturers Quarters", "heightM": 6.2, "heightSource": "default"}, "geometry": {"type": "Polygon", "coordinates": [[[37.0109741, -1.095138], [37.0111727, -1.0951436], [37.0111707, -1.095215], [37.0109721, -1.0952094], [37.0109741, -1.095138]]]}}, {"type": "Feature", "properties": {"id": "331285608", "name": null, "heightM": 6.2, "heightSource": "default"}, "geometry": {"type": "Polygon", "coordinates": [[[37.0108235, -1.0957326], [37.0109268, -1.0957282], [37.0109256, -1.0957002], [37.0110383, -1.0956955], [37.0110347, -1.0956114], [37.0109284, -1.0956159], [37.0109298, -1.095649], [37.0108202, -1.0956536], [37.0108235, -1.0957326]]]}}, {"type": "Feature", "properties": {"id": "331285611", "name": null, "heightM": 6.2, "heightSource": "default"}, "geometry": {"type": "Polygon", "coordinates": [[[37.0110311, -1.095934], [37.0110866, -1.0959339], [37.0111305, -1.0959339], [37.0111306, -1.095967], [37.0112488, -1.0959668], [37.0112487, -1.0958805], [37.011031, -1.0958808], [37.0110311, -1.095934]]]}}, {"type": "Feature", "properties": {"id": "331285613", "name": null, "heightM": 6.2, "heightSource": "default"}, "geometry": {"type": "Polygon", "coordinates": [[[37.0108519, -1.096149], [37.0110549, -1.096148], [37.0110545, -1.096047], [37.0108514, -1.096048], [37.0108519, -1.096149]]]}}, {"type": "Feature", "properties": {"id": "331285614", "name": null, "heightM": 6.2, "heightSource": "default"}, "geometry": {"type": "Polygon", "coordinates": [[[37.0111437, -1.0961351], [37.0112623, -1.0961345], [37.0112622, -1.0961208], [37.0113482, -1.0961204], [37.0113478, -1.0960415], [37.0112597, -1.0960419], [37.0112598, -1.096068], [37.0111434, -1.0960685], [37.0111437, -1.0961351]]]}}, {"type": "Feature", "properties": {"id": "331285616", "name": null, "heightM": 6.2, "heightSource": "default"}, "geometry": {"type": "Polygon", "coordinates": [[[37.0110443, -1.0963547], [37.0110398, -1.0962706], [37.0112427, -1.0962599], [37.0112472, -1.096344], [37.0110443, -1.0963547]]]}}, {"type": "Feature", "properties": {"id": "331285617", "name": null, "heightM": 6.2, "heightSource": "default"}, "geometry": {"type": "Polygon", "coordinates": [[[37.0114648, -1.0963362], [37.0114638, -1.0963664], [37.0115664, -1.0963698], [37.0115691, -1.0962886], [37.0113695, -1.0962819], [37.0113678, -1.096333], [37.0114648, -1.0963362]]]}}, {"type": "Feature", "properties": {"id": "331285618", "name": null, "heightM": 6.2, "heightSource": "default"}, "geometry": {"type": "Polygon", "coordinates": [[[37.0108631, -1.0964995], [37.0109492, -1.0965024], [37.0109482, -1.096534], [37.011072, -1.0965381], [37.0110741, -1.0964749], [37.0110114, -1.0964728], [37.0110124, -1.0964421], [37.0108652, -1.0964372], [37.0108631, -1.0964995]]]}}, {"type": "Feature", "properties": {"id": "331285619", "name": null, "heightM": 6.2, "heightSource": "default"}, "geometry": {"type": "Polygon", "coordinates": [[[37.0111585, -1.0965435], [37.0113724, -1.0965415], [37.0113717, -1.096468], [37.0111578, -1.0964699], [37.0111585, -1.0965435]]]}}, {"type": "Feature", "properties": {"id": "331285621", "name": null, "heightM": 6.2, "heightSource": "default"}, "geometry": {"type": "Polygon", "coordinates": [[[37.0110546, -1.0967503], [37.0111551, -1.0967468], [37.0111563, -1.0967792], [37.0112577, -1.0967756], [37.0112551, -1.0967013], [37.0111632, -1.0967046], [37.0111626, -1.0966854], [37.0110524, -1.0966893], [37.0110546, -1.0967503]]]}}, {"type": "Feature", "properties": {"id": "331285622", "name": null, "heightM": 6.2, "heightSource": "default"}, "geometry": {"type": "Polygon", "coordinates": [[[37.0114366, -1.096785], [37.0114355, -1.096718], [37.011528, -1.0967166], [37.0115275, -1.0966822], [37.0116403, -1.0966805], [37.0116413, -1.0967483], [37.0115586, -1.0967495], [37.0115591, -1.0967831], [37.0114366, -1.096785]]]}}, {"type": "Feature", "properties": {"id": "331285626", "name": null, "heightM": 6.2, "heightSource": "default"}, "geometry": {"type": "Polygon", "coordinates": [[[37.0109638, -1.0971078], [37.0110709, -1.0971031], [37.0110702, -1.097088], [37.0111219, -1.0970857], [37.0111252, -1.0971612], [37.0109664, -1.0971681], [37.0109638, -1.0971078]]]}}, {"type": "Feature", "properties": {"id": "331289112", "name": null, "heightM": 6.2, "heightSource": "default"}, "geometry": {"type": "Polygon", "coordinates": [[[37.0111668, -1.0971707], [37.0112394, -1.0971693], [37.0112396, -1.0971823], [37.011315, -1.0971808], [37.0113164, -1.0972514], [37.0111685, -1.0972544], [37.0111668, -1.0971707]]]}}, {"type": "Feature", "properties": {"id": "331289113", "name": null, "heightM": 6.2, "heightSource": "default"}, "geometry": {"type": "Polygon", "coordinates": [[[37.0113684, -1.0971586], [37.0114335, -1.0971563], [37.0114342, -1.0971782], [37.0115255, -1.097175], [37.0115279, -1.0972433], [37.0113715, -1.0972487], [37.0113684, -1.0971586]]]}}, {"type": "Feature", "properties": {"id": "331289116", "name": "jkuat tree Nursery", "heightM": 6.2, "heightSource": "default"}, "geometry": {"type": "Polygon", "coordinates": [[[37.0115863, -1.0974969], [37.0118512, -1.0975015], [37.0118343, -1.0976247], [37.0118327, -1.0976986], [37.0118266, -1.0977156], [37.011805, -1.0977295], [37.0117757, -1.0977387], [37.011728, -1.0977618], [37.011691, -1.0977741], [37.0116741, -1.0977772], [37.0116294, -1.097771], [37.0115863, -1.0974969]]]}}, {"type": "Feature", "properties": {"id": "331289117", "name": null, "heightM": 6.2, "heightSource": "default"}, "geometry": {"type": "Polygon", "coordinates": [[[37.0118556, -1.0969113], [37.0118552, -1.0968138], [37.0121345, -1.0968128], [37.0121349, -1.0969103], [37.0118556, -1.0969113]]]}}, {"type": "Feature", "properties": {"id": "331289118", "name": null, "heightM": 6.2, "heightSource": "default"}, "geometry": {"type": "Polygon", "coordinates": [[[37.0119143, -1.0966901], [37.0120677, -1.0966878], [37.0120686, -1.0967528], [37.0119152, -1.096755], [37.0119143, -1.0966901]]]}}, {"type": "Feature", "properties": {"id": "331307331", "name": null, "heightM": 6.2, "heightSource": "default"}, "geometry": {"type": "Polygon", "coordinates": [[[37.012275, -1.0938857], [37.0123521, -1.0938897], [37.0123507, -1.093917], [37.0122736, -1.0939129], [37.012275, -1.0938857]]]}}, {"type": "Feature", "properties": {"id": "331307332", "name": null, "heightM": 6.2, "heightSource": "default"}, "geometry": {"type": "Polygon", "coordinates": [[[37.0158156, -1.0959722], [37.0159629, -1.0959708], [37.0159634, -1.096019], [37.0158161, -1.0960204], [37.0158156, -1.0959722]]]}}, {"type": "Feature", "properties": {"id": "371717555", "name": null, "heightM": 6.2, "heightSource": "default"}, "geometry": {"type": "Polygon", "coordinates": [[[37.0163395, -1.0946145], [37.0163896, -1.0946224], [37.0164206, -1.0944245], [37.0163705, -1.0944166], [37.0163395, -1.0946145]]]}}, {"type": "Feature", "properties": {"id": "907642930", "name": "NCLB", "heightM": 3.0, "heightSource": "osm_levels"}, "geometry": {"type": "Polygon", "coordinates": [[[37.0131728, -1.0942366], [37.0134524, -1.0942382], [37.0134513, -1.0944194], [37.0131717, -1.0944177], [37.0131728, -1.0942366]]]}}, {"type": "Feature", "properties": {"id": "1101955689", "name": "Procurement", "heightM": 6.2, "heightSource": "default"}, "geometry": {"type": "Polygon", "coordinates": [[[37.01346, -1.0933605], [37.0134603, -1.0934463], [37.0136138, -1.0934461], [37.0136137, -1.0933598], [37.01346, -1.0933605]]]}}, {"type": "Feature", "properties": {"id": "1101955690", "name": "COANRE", "heightM": 6.2, "heightSource": "default"}, "geometry": {"type": "Polygon", "coordinates": [[[37.014024, -1.0943413], [37.0142214, -1.0943375], [37.0142248, -1.0945112], [37.0140273, -1.094515], [37.014024, -1.0943413]]]}}, {"type": "Feature", "properties": {"id": "1101957176", "name": null, "heightM": 6.2, "heightSource": "default"}, "geometry": {"type": "Polygon", "coordinates": [[[37.014391, -1.094235], [37.0144848, -1.0942351], [37.0145185, -1.0942111], [37.0145714, -1.0942375], [37.0147059, -1.0942377], [37.0147057, -1.0943529], [37.0145758, -1.0943527], [37.0145758, -1.0943813], [37.0144699, -1.0943812], [37.01447, -1.0943448], [37.0143908, -1.0943447], [37.014391, -1.094235]]]}}, {"type": "Feature", "properties": {"id": "1101957177", "name": null, "heightM": 6.2, "heightSource": "default"}, "geometry": {"type": "Polygon", "coordinates": [[[37.0146583, -1.0935072], [37.014601, -1.0935069], [37.0146012, -1.0934727], [37.0145667, -1.0934725], [37.0145669, -1.0934334], [37.0146303, -1.0934337], [37.0146302, -1.0934647], [37.0146522, -1.0934298], [37.0146915, -1.0934545], [37.0146583, -1.0935072]]]}}, {"type": "Feature", "properties": {"id": "1101957178", "name": null, "heightM": 6.2, "heightSource": "default"}, "geometry": {"type": "Polygon", "coordinates": [[[37.0145964, -1.0933952], [37.0145959, -1.0934204], [37.0146335, -1.0934212], [37.0146341, -1.093396], [37.0145964, -1.0933952]]]}}, {"type": "Feature", "properties": {"id": "1101957179", "name": null, "heightM": 6.2, "heightSource": "default"}, "geometry": {"type": "Polygon", "coordinates": [[[37.0146402, -1.0933991], [37.0146741, -1.0933985], [37.0146747, -1.0934341], [37.0146407, -1.0934242], [37.0146402, -1.0933991]]]}}, {"type": "Feature", "properties": {"id": "1101957180", "name": null, "heightM": 6.2, "heightSource": "default"}, "geometry": {"type": "Polygon", "coordinates": [[[37.0146899, -1.0933875], [37.0146713, -1.093325], [37.0146111, -1.0933262], [37.0146124, -1.0933892], [37.0146899, -1.0933875]]]}}, {"type": "Feature", "properties": {"id": "1101957181", "name": null, "heightM": 6.2, "heightSource": "default"}, "geometry": {"type": "Polygon", "coordinates": [[[37.0151999, -1.093099], [37.0152875, -1.0930985], [37.0152879, -1.0931704], [37.0152002, -1.0931709], [37.0151999, -1.093099]]]}}, {"type": "Feature", "properties": {"id": "1101959821", "name": null, "heightM": 6.2, "heightSource": "default"}, "geometry": {"type": "Polygon", "coordinates": [[[37.0146815, -1.0931494], [37.0146508, -1.0931499], [37.0146505, -1.0931322], [37.0146813, -1.0931318], [37.0146815, -1.0931494]]]}}, {"type": "Feature", "properties": {"id": "1101959822", "name": null, "heightM": 6.2, "heightSource": "default"}, "geometry": {"type": "Polygon", "coordinates": [[[37.0146992, -1.0931216], [37.0146287, -1.0931214], [37.0146291, -1.0929848], [37.0146996, -1.092985], [37.0146992, -1.0931216]]]}}, {"type": "Feature", "properties": {"id": "1101959823", "name": "HRD", "heightM": 6.2, "heightSource": "default"}, "geometry": {"type": "Polygon", "coordinates": [[[37.0147307, -1.093167], [37.0150751, -1.0931677], [37.0150741, -1.0936732], [37.0147304, -1.0936725], [37.0147308, -1.0934879], [37.0149947, -1.0934884], [37.0149947, -1.0934789], [37.0148922, -1.0934787], [37.0148924, -1.0933639], [37.0150003, -1.0933641], [37.0150003, -1.0933518], [37.0147306, -1.0933512], [37.0147307, -1.0933087], [37.0147123, -1.0933086], [37.0147124, -1.0932436], [37.0147306, -1.0932436], [37.0147307, -1.093167]]]}}, {"type": "Feature", "properties": {"id": "1101959824", "name": null, "heightM": 6.2, "heightSource": "default"}, "geometry": {"type": "Polygon", "coordinates": [[[37.014597, -1.0933549], [37.0145927, -1.09312], [37.0140335, -1.0931302], [37.0140378, -1.093365], [37.014597, -1.0933549]]]}}, {"type": "Feature", "properties": {"id": "1101960316", "name": null, "heightM": 6.2, "heightSource": "default"}, "geometry": {"type": "Polygon", "coordinates": [[[37.0125314, -1.09335], [37.0125308, -1.0934937], [37.0126075, -1.093494], [37.0126081, -1.0933504], [37.0125314, -1.09335]]]}}, {"type": "Feature", "properties": {"id": "1101960317", "name": null, "heightM": 6.2, "heightSource": "default"}, "geometry": {"type": "Polygon", "coordinates": [[[37.0126281, -1.0933536], [37.0126318, -1.0935036], [37.0126876, -1.0935023], [37.0126835, -1.0933375], [37.0126281, -1.0933536]]]}}, {"type": "Feature", "properties": {"id": "1101960318", "name": null, "heightM": 6.2, "heightSource": "default"}, "geometry": {"type": "Polygon", "coordinates": [[[37.0124218, -1.0932872], [37.0124917, -1.0932847], [37.0124946, -1.0933667], [37.0124247, -1.0933692], [37.0124218, -1.0932872]]]}}, {"type": "Feature", "properties": {"id": "1101960319", "name": null, "heightM": 6.2, "heightSource": "default"}, "geometry": {"type": "Polygon", "coordinates": [[[37.0124329, -1.0932551], [37.0125333, -1.0932513], [37.012529, -1.0931415], [37.0124287, -1.0931454], [37.0124329, -1.0932551]]]}}, {"type": "Feature", "properties": {"id": "1101960320", "name": null, "heightM": 6.2, "heightSource": "default"}, "geometry": {"type": "Polygon", "coordinates": [[[37.0121675, -1.0932294], [37.0122229, -1.0932291], [37.0122224, -1.0931318], [37.0121669, -1.0931321], [37.0121675, -1.0932294]]]}}, {"type": "Feature", "properties": {"id": "1101960321", "name": null, "heightM": 6.2, "heightSource": "default"}, "geometry": {"type": "Polygon", "coordinates": [[[37.0122422, -1.0931572], [37.0122752, -1.0931575], [37.0122746, -1.0932218], [37.0122416, -1.0932215], [37.0122422, -1.0931572]]]}}, {"type": "Feature", "properties": {"id": "1101960322", "name": null, "heightM": 6.2, "heightSource": "default"}, "geometry": {"type": "Polygon", "coordinates": [[[37.0121897, -1.0933916], [37.0121853, -1.0934441], [37.0122283, -1.0934477], [37.0122327, -1.0933952], [37.0121897, -1.0933916]]]}}, {"type": "Feature", "properties": {"id": "1101960323", "name": null, "heightM": 6.2, "heightSource": "default"}, "geometry": {"type": "Polygon", "coordinates": [[[37.0126039, -1.0931873], [37.0125975, -1.0932857], [37.012643, -1.0932886], [37.0126494, -1.0931903], [37.0126039, -1.0931873]]]}}, {"type": "Feature", "properties": {"id": "1101961948", "name": null, "heightM": 6.2, "heightSource": "default"}, "geometry": {"type": "Polygon", "coordinates": [[[37.012347, -1.0934213], [37.012345, -1.0935043], [37.0124082, -1.0935058], [37.0124102, -1.0934228], [37.012347, -1.0934213]]]}}, {"type": "Feature", "properties": {"id": "1101961955", "name": null, "heightM": 6.2, "heightSource": "default"}, "geometry": {"type": "Polygon", "coordinates": [[[37.0124938, -1.094318], [37.012722, -1.0943283], [37.0127258, -1.0942433], [37.0124976, -1.0942332], [37.0124938, -1.094318]]]}}, {"type": "Feature", "properties": {"id": "1101961956", "name": null, "heightM": 6.2, "heightSource": "default"}, "geometry": {"type": "Polygon", "coordinates": [[[37.0126038, -1.0943691], [37.0126307, -1.094365], [37.0126425, -1.0944414], [37.0126157, -1.0944456], [37.0126038, -1.0943691]]]}}, {"type": "Feature", "properties": {"id": "1101961958", "name": null, "heightM": 6.2, "heightSource": "default"}, "geometry": {"type": "Polygon", "coordinates": [[[37.01235, -1.0930795], [37.0123472, -1.0931374], [37.0124001, -1.0931399], [37.0124029, -1.0930821], [37.01235, -1.0930795]]]}}, {"type": "Feature", "properties": {"id": "1101961959", "name": null, "heightM": 6.2, "heightSource": "default"}, "geometry": {"type": "Polygon", "coordinates": [[[37.0125924, -1.0930568], [37.0125933, -1.0931057], [37.0126861, -1.0931039], [37.0126852, -1.0930551], [37.0125924, -1.0930568]]]}}, {"type": "Feature", "properties": {"id": "1101961960", "name": null, "heightM": 6.2, "heightSource": "default"}, "geometry": {"type": "Polygon", "coordinates": [[[37.0122119, -1.0930947], [37.0121119, -1.0930922], [37.0121129, -1.0930546], [37.0122128, -1.0930572], [37.0122119, -1.0930947]]]}}, {"type": "Feature", "properties": {"id": "1101961961", "name": null, "heightM": 6.2, "heightSource": "default"}, "geometry": {"type": "Polygon", "coordinates": [[[37.01206, -1.0931118], [37.0121095, -1.0931759], [37.0121415, -1.0931511], [37.012092, -1.093087], [37.01206, -1.0931118]]]}}, {"type": "Feature", "properties": {"id": "1101963114", "name": null, "heightM": 6.2, "heightSource": "default"}, "geometry": {"type": "Polygon", "coordinates": [[[37.0165343, -1.0932447], [37.01669, -1.0932494], [37.0166896, -1.0932624], [37.016719, -1.0932633], [37.0167164, -1.0933495], [37.0165313, -1.093344], [37.0165343, -1.0932447]]]}}, {"type": "Feature", "properties": {"id": "1101963115", "name": null, "heightM": 6.2, "heightSource": "default"}, "geometry": {"type": "Polygon", "coordinates": [[[37.0166152, -1.0933888], [37.0166668, -1.0933885], [37.0166667, -1.0933556], [37.016615, -1.0933558], [37.0166152, -1.0933888]]]}}, {"type": "Feature", "properties": {"id": "1101963116", "name": null, "heightM": 6.2, "heightSource": "default"}, "geometry": {"type": "Polygon", "coordinates": [[[37.0166805, -1.0935192], [37.0166798, -1.0935707], [37.0167589, -1.0935717], [37.0167596, -1.0935203], [37.0166805, -1.0935192]]]}}, {"type": "Feature", "properties": {"id": "1101963117", "name": null, "heightM": 6.2, "heightSource": "default"}, "geometry": {"type": "Polygon", "coordinates": [[[37.0166936, -1.093647], [37.0167513, -1.0936463], [37.0167508, -1.0936078], [37.016693, -1.0936085], [37.0166936, -1.093647]]]}}, {"type": "Feature", "properties": {"id": "1102276243", "name": null, "heightM": 6.2, "heightSource": "default"}, "geometry": {"type": "Polygon", "coordinates": [[[37.0120521, -1.095937], [37.0120505, -1.0957908], [37.0122483, -1.0957885], [37.01225, -1.0959348], [37.0120521, -1.095937]]]}}, {"type": "Feature", "properties": {"id": "1102276244", "name": null, "heightM": 6.2, "heightSource": "default"}, "geometry": {"type": "Polygon", "coordinates": [[[37.012757, -1.0957718], [37.0128168, -1.0957743], [37.0128128, -1.0958722], [37.012753, -1.0958697], [37.012757, -1.0957718]]]}}, {"type": "Feature", "properties": {"id": "1102276245", "name": null, "heightM": 6.2, "heightSource": "default"}, "geometry": {"type": "Polygon", "coordinates": [[[37.0123681, -1.0959481], [37.0123716, -1.0957505], [37.0126721, -1.0957559], [37.0126685, -1.0959535], [37.0123681, -1.0959481]]]}}, {"type": "Feature", "properties": {"id": "1102276246", "name": null, "heightM": 6.2, "heightSource": "default"}, "geometry": {"type": "Polygon", "coordinates": [[[37.0121522, -1.0966802], [37.0122274, -1.0966778], [37.0122301, -1.096761], [37.0121549, -1.0967634], [37.0121522, -1.0966802]]]}}, {"type": "Feature", "properties": {"id": "1102276249", "name": null, "heightM": 6.2, "heightSource": "default"}, "geometry": {"type": "Polygon", "coordinates": [[[37.0116734, -1.096455], [37.0116748, -1.0965261], [37.0115613, -1.0965282], [37.0115599, -1.0964571], [37.0116734, -1.096455]]]}}, {"type": "Feature", "properties": {"id": "1102276250", "name": null, "heightM": 6.2, "heightSource": "default"}, "geometry": {"type": "Polygon", "coordinates": [[[37.0117614, -1.0970959], [37.011883, -1.0970995], [37.0118812, -1.0971617], [37.0117596, -1.0971581], [37.0117614, -1.0970959]]]}}, {"type": "Feature", "properties": {"id": "1103908744", "name": null, "heightM": 6.2, "heightSource": "default"}, "geometry": {"type": "Polygon", "coordinates": [[[37.0122098, -1.095283], [37.0126792, -1.0952857], [37.0126784, -1.0954213], [37.0122091, -1.0954186], [37.0122098, -1.095283]]]}}, {"type": "Feature", "properties": {"id": "1120947587", "name": null, "heightM": 6.2, "heightSource": "default"}, "geometry": {"type": "Polygon", "coordinates": [[[37.0147546, -1.0930163], [37.0150271, -1.0930149], [37.0150275, -1.0930887], [37.014755, -1.0930902], [37.0147546, -1.0930163]]]}}, {"type": "Feature", "properties": {"id": "1120947589", "name": null, "heightM": 6.2, "heightSource": "default"}, "geometry": {"type": "Polygon", "coordinates": [[[37.0147595, -1.0929273], [37.0150286, -1.0929259], [37.015029, -1.0929991], [37.0147599, -1.0930005], [37.0147595, -1.0929273]]]}}, {"type": "Feature", "properties": {"id": "1123092591", "name": null, "heightM": 6.2, "heightSource": "default"}, "geometry": {"type": "Polygon", "coordinates": [[[37.0114993, -1.0932699], [37.0115062, -1.0933499], [37.0116342, -1.0933499], [37.011609, -1.0932448], [37.0114993, -1.0932699]]]}}, {"type": "Feature", "properties": {"id": "1123092780", "name": null, "heightM": 6.2, "heightSource": "default"}, "geometry": {"type": "Polygon", "coordinates": [[[37.0113352, -1.0936646], [37.0114299, -1.093662], [37.0114312, -1.0937077], [37.0113365, -1.0937103], [37.0113352, -1.0936646]]]}}, {"type": "Feature", "properties": {"id": "1123093075", "name": null, "heightM": 6.2, "heightSource": "default"}, "geometry": {"type": "Polygon", "coordinates": [[[37.0115118, -1.0934128], [37.0115735, -1.0934105], [37.0115758, -1.0935362], [37.0115186, -1.0935362], [37.0115118, -1.0934128]]]}}, {"type": "Feature", "properties": {"id": "1127906477", "name": "S.C.C", "heightM": 6.0, "heightSource": "osm_levels"}, "geometry": {"type": "Polygon", "coordinates": [[[37.0146445, -1.0944887], [37.0150763, -1.0944911], [37.0150753, -1.0946714], [37.0149711, -1.0946709], [37.0146435, -1.0946691], [37.0146445, -1.0944887]]]}}, {"type": "Feature", "properties": {"id": "1127968365", "name": null, "heightM": 6.2, "heightSource": "default"}, "geometry": {"type": "Polygon", "coordinates": [[[37.0174368, -1.0936834], [37.0173402, -1.0936834], [37.0173402, -1.0935419], [37.0174368, -1.0935419], [37.0174368, -1.0936834]]]}}, {"type": "Feature", "properties": {"id": "1138099417", "name": null, "heightM": 6.2, "heightSource": "default"}, "geometry": {"type": "Polygon", "coordinates": [[[37.0128093, -1.0952911], [37.0128576, -1.0952914], [37.0128572, -1.0953608], [37.0128089, -1.0953606], [37.0128093, -1.0952911]]]}}, {"type": "Feature", "properties": {"id": "1138101179", "name": null, "heightM": 6.2, "heightSource": "default"}, "geometry": {"type": "Polygon", "coordinates": [[[37.0176702, -1.09723], [37.017813, -1.0970321], [37.0179124, -1.0971038], [37.0177696, -1.0973017], [37.0176702, -1.09723]]]}}, {"type": "Feature", "properties": {"id": "1138134192", "name": null, "heightM": 6.2, "heightSource": "default"}, "geometry": {"type": "Polygon", "coordinates": [[[37.0143382, -1.0965482], [37.0143918, -1.0965458], [37.0143938, -1.0965907], [37.0143402, -1.0965931], [37.0143382, -1.0965482]]]}}, {"type": "Feature", "properties": {"id": "1138237333", "name": null, "heightM": 6.2, "heightSource": "default"}, "geometry": {"type": "Polygon", "coordinates": [[[37.0176851, -1.0969258], [37.0177404, -1.0969707], [37.0178001, -1.0968973], [37.0177448, -1.0968524], [37.0176851, -1.0969258]]]}}, {"type": "Feature", "properties": {"id": "1138237334", "name": null, "heightM": 6.2, "heightSource": "default"}, "geometry": {"type": "Polygon", "coordinates": [[[37.0181234, -1.0965185], [37.0181929, -1.096573], [37.0180359, -1.0967729], [37.0179665, -1.0967184], [37.0181234, -1.0965185]]]}}, {"type": "Feature", "properties": {"id": "1138237335", "name": null, "heightM": 6.2, "heightSource": "default"}, "geometry": {"type": "Polygon", "coordinates": [[[37.0179821, -1.0964377], [37.0180628, -1.0964968], [37.0179189, -1.0966934], [37.0178381, -1.0966344], [37.0179821, -1.0964377]]]}}, {"type": "Feature", "properties": {"id": "1138239674", "name": null, "heightM": 6.2, "heightSource": "default"}, "geometry": {"type": "Polygon", "coordinates": [[[37.0153286, -1.0967647], [37.015549, -1.0967658], [37.0155479, -1.0970014], [37.0153275, -1.0970004], [37.0153286, -1.0967647]]]}}, {"type": "Feature", "properties": {"id": "1225884848", "name": null, "heightM": 6.2, "heightSource": "default"}, "geometry": {"type": "Polygon", "coordinates": [[[37.0116131, -1.0943391], [37.0116955, -1.0943344], [37.0116979, -1.0943752], [37.0116154, -1.0943799], [37.0116131, -1.0943391]]]}}, {"type": "Feature", "properties": {"id": "1225884849", "name": null, "heightM": 6.2, "heightSource": "default"}, "geometry": {"type": "Polygon", "coordinates": [[[37.0113979, -1.0954956], [37.0115259, -1.0954912], [37.0115299, -1.0956092], [37.0114019, -1.0956136], [37.0113979, -1.0954956]]]}}, {"type": "Feature", "properties": {"id": "1529400883", "name": null, "heightM": 6.2, "heightSource": "default"}, "geometry": {"type": "Polygon", "coordinates": [[[37.0168387, -1.0963879], [37.0168387, -1.0963383], [37.0169051, -1.0963383], [37.0169051, -1.0963879], [37.0168387, -1.0963879]]]}}, {"type": "Feature", "properties": {"id": "1529427898", "name": null, "heightM": 6.2, "heightSource": "default"}, "geometry": {"type": "Polygon", "coordinates": [[[37.0120724, -1.0942318], [37.0121114, -1.0942311], [37.0121128, -1.0943035], [37.0120738, -1.0943042], [37.0120724, -1.0942318]]]}}, {"type": "Feature", "properties": {"id": "1529427899", "name": null, "heightM": 6.2, "heightSource": "default"}, "geometry": {"type": "Polygon", "coordinates": [[[37.0121965, -1.094327], [37.012122, -1.0943257], [37.0121234, -1.0942484], [37.0121979, -1.0942497], [37.0121965, -1.094327]]]}}, {"type": "Feature", "properties": {"id": "1529427900", "name": null, "heightM": 6.2, "heightSource": "default"}, "geometry": {"type": "Polygon", "coordinates": [[[37.0124064, -1.0943418], [37.0122394, -1.0943451], [37.0122385, -1.0942997], [37.0124055, -1.0942964], [37.0124064, -1.0943418]]]}}, {"type": "Feature", "properties": {"id": "1529427901", "name": null, "heightM": 6.2, "heightSource": "default"}, "geometry": {"type": "Polygon", "coordinates": [[[37.0123675, -1.094201], [37.0124485, -1.0942028], [37.0124465, -1.0942913], [37.0123655, -1.0942895], [37.0123675, -1.094201]]]}}, {"type": "Feature", "properties": {"id": "1529427902", "name": null, "heightM": 6.2, "heightSource": "default"}, "geometry": {"type": "Polygon", "coordinates": [[[37.0127148, -1.0942325], [37.0125658, -1.0942259], [37.0125686, -1.0941635], [37.0127176, -1.0941701], [37.0127148, -1.0942325]]]}}, {"type": "Feature", "properties": {"id": "1529427903", "name": null, "heightM": 6.2, "heightSource": "default"}, "geometry": {"type": "Polygon", "coordinates": [[[37.0127349, -1.0942352], [37.0128045, -1.0942383], [37.012802, -1.0942949], [37.0127324, -1.0942918], [37.0127349, -1.0942352]]]}}, {"type": "Feature", "properties": {"id": "1529427904", "name": null, "heightM": 6.2, "heightSource": "default"}, "geometry": {"type": "Polygon", "coordinates": [[[37.0121133, -1.0944303], [37.0121869, -1.0944329], [37.0121835, -1.0945274], [37.01211, -1.0945248], [37.0121133, -1.0944303]]]}}, {"type": "Feature", "properties": {"id": "1530823536", "name": null, "heightM": 6.2, "heightSource": "default"}, "geometry": {"type": "Polygon", "coordinates": [[[37.0118719, -1.0962968], [37.0120168, -1.0962994], [37.0120154, -1.0963736], [37.0118706, -1.0963709], [37.0118719, -1.0962968]]]}}]}